[{"OBJECT_NAME":"ION SCV-010","OBJECT_ID":"2023-054Q","EPOCH":"2026-03-09T16:02:35.904768","MEAN_MOTION":15.25210322,"ECCENTRICITY":0.00127052,"INCLINATION":97.3904,"RA_OF_ASC_NODE":319.4312,"ARG_OF_PERICENTER":188.785,"MEAN_ANOMALY":171.3168,"EPHEMERIS_TYPE":0,"CLASSIFICATION_TYPE":"U","NORAD_CAT_ID":56192,"ELEMENT_SET_NO":999,"REV_AT_EPOCH":16102,"BSTAR":0.00025045068,"MEAN_MOTION_DOT":6.231e-5,"MEAN_MOTION_DDOT":0},{"OBJECT_NAME":"STARLINK-34101","OBJECT_ID":"2025-092J","EPOCH":"2026-03-09T07:50:07.460736","MEAN_MOTION":15.27584887,"ECCENTRICITY":6.526e-5,"INCLINATION":42.9969,"RA_OF_ASC_NODE":174.2005,"ARG_OF_PERICENTER":231.9455,"MEAN_ANOMALY":128.1338,"EPHEMERIS_TYPE":0,"CLASSIFICATION_TYPE":"U","NORAD_CAT_ID":63812,"ELEMENT_SET_NO":999,"REV_AT_EPOCH":4850,"BSTAR":0.0011466569,"MEAN_MOTION_DOT":0.00031431,"MEAN_MOTION_DDOT":0}]
